#aV2012  9 14  0  0  0.00000000     288 DD+AD WGS84 FIT  NGA
## 1705 432000.00000000   300.00000000 56184 0.0000000000000
+   31     1  2  3  4  5  6  7  8  9 10 11 12 13 14 15 16 17
+         18 19 20 21 22 23 25 26 27 28 29 30 31 32  0  0  0
+          0  0  0  0  0  0  0  0  0  0  0  0  0  0  0  0  0
+          0  0  0  0  0  0  0  0  0  0  0  0  0  0  0  0  0
+          0  0  0  0  0  0  0  0  0  0  0  0  0  0  0  0  0
++         2  2  2  2  2  2  2  2  2  2  2  2  2  2  2  2  2
++         2  2  2  2  2  2  2  2  2  2  2  2  2  2  2  0  0
++         0  0  0  0  0  0  0  0  0  0  0  0  0  0  0  0  0
++         0  0  0  0  0  0  0  0  0  0  0  0  0  0  0  0  0
++         0  0  0  0  0  0  0  0  0  0  0  0  0  0  0  0  0
%c cc cc ccc ccc cccc cccc cccc cccc ccccc ccccc ccccc ccccc
%c cc cc ccc ccc cccc cccc cccc cccc ccccc ccccc ccccc ccccc
%f  0.0000000  0.000000000  0.00000000000  0.000000000000000
%f  0.0000000  0.000000000  0.00000000000  0.000000000000000
%i    0    0    0    0      0      0      0      0         0
%i    0    0    0    0      0      0      0      0         0
/*      NGA, ST. LOUIS,MO.                                  
/*   EPHEMERIS COMPUTED FROM  1 DAYS OF DATA
/*   EPOCHA SMOOTHER  
/* CCCCCCCCCCCCCCCCCCCCCCCCCCCCCCCCCCCCCCCCCCCCCCCCCCCCCCCCC
*  2012  9 14  9 35  0.00000000                                                 
P  1 -22502.290008 -14163.210190    190.751518    273.617116                    
V  1   1275.310776  -2487.112246 -31715.389146      0.015393                    
P  2   6983.759140  19204.201902  17373.772087    402.862383                    
V  2 -19359.177027  -9850.246970  18323.124322      0.012098                    
P  3  -1030.751545 -17669.339300 -20232.202779    101.449388                    
V  3  21019.275967 -13205.039588  10981.313665      0.051450                    
P  4  -8427.523290  13100.147888  21248.930033    304.102028                    
V  4 -23425.429181 -14767.985406    121.448093      0.112507                    
P  5   2473.059200  25892.031598  -5032.370199   -351.864167                    
V  5  -3461.964449   6255.652118  30731.610387     -0.030105                    
P  6   5318.310628 -18532.891946 -18026.803018    -29.913258                    
V  6  21075.769733 -10126.728707  16850.088355     -0.085384                    
P  7 -22702.997454  -4240.550837 -13337.576192    121.890504                    
V  7 -13116.095005 -10703.706258  25394.963679      0.042835                    
P  8 -15068.521828   5481.478439 -21216.221016      2.154978                    
V  8 -20911.848331 -16923.145631   9866.534619      0.000522                    
P  9  20142.394259  16647.319742  -5095.406406    185.475774                    
V  9  -5937.371334  -1387.972148 -31464.271010      0.025987                    
P 10  -9534.631564  21739.826403  11225.458314    -51.714888                    
V 10  -2240.392573 -15003.442057  26940.567111     -0.013099                    
P 11 -21482.757515 -13629.277490  -8551.678323   -302.570963                    
V 11  11161.701891  -1136.091676 -27239.704403     -0.039712                    
P 12  11696.135867  14511.778673  18979.084948     90.830902                    
V 12  -2735.832276  23884.654044 -16375.366969      0.020513                    
P 13 -24963.723885   4299.478804   8040.082359    181.233115                    
V 13   8892.215270  -5597.015790  29988.663773     -0.025603                    
P 14  20671.306651 -14716.013713   7769.346901    212.603261                    
V 14   9720.655627  -1788.895607 -30143.572842      0.009015                    
P 15  13341.716712   9858.566992 -20787.691700    -95.340057                    
V 15 -22776.681511  13375.688063  -8055.988923     -0.006736                    
P 16  -1146.714641 -25854.785906  -5183.290931   -245.988299                    
V 16   2938.635843  -6378.926069  31508.678215     -0.007843                    
P 17 -20322.867797  15283.843754   7410.243119     96.612421                    
V 17  -9510.069613   1464.828207 -30070.535829     -0.032983                    
P 18  15416.995722  -6638.457884 -20133.080834    214.894773                    
V 18    -45.890603  26655.190016  -9017.737301      0.018310                    
P 19 -10571.429158 -11843.073048 -21414.363455   -303.721911                    
V 19  24829.331021 -10544.664325  -6051.676068     -0.035060                    
P 20 -14365.354861 -11179.877726  19204.347251     68.180128                    
V 20   1559.147284 -24822.587233 -13104.321520      0.007899                    
P 21  22073.080853   1333.542324 -14595.302922   -249.589821                    
V 21  14858.143118  12532.682465  22265.025208     -0.024000                    
P 22  10684.130752 -20544.297129 -12704.207603    147.878256                    
V 22   2351.777157  16722.913059 -24823.626639      0.004228                    
P 23 -19666.432761  -4000.020445  17642.325735    164.677030                    
V 23  19153.178477 -11233.175988  18479.003167     -0.039323                    
P 25  15006.790474     15.034494  21871.754198     42.788685                    
V 25   -932.677061  27828.977406    680.207024      0.012924                    
P 26    101.459027  15789.523625 -21922.446609   -281.206386                    
V 26 -24614.688070   9501.339689   7276.563721      0.130286                    
P 27  19048.339110  17073.693292  -7502.014950    431.118589                    
V 27  -9637.175204  -3711.911111 -29973.380621      0.041468                    
P 28 -11876.824925  17763.510768 -15073.723292    185.267154                    
V 28     51.724476 -20288.155478 -23309.366957      0.037544                    
P 29  23802.691740  -2115.460899  11601.100586    355.349158                    
V 29 -12340.094559   8248.327391  26986.055120      0.041250                    
P 30   2661.609326 -25697.528247   5846.183728   -413.748827                    
V 30   3190.039437   7720.110912  30574.365770      0.198114                    
P 31   5340.305226 -14138.246436  22008.989538    274.303294                    
V 31  23033.677040  14946.711793   4285.909052      0.025138                    
P 32  -8325.768538 -20424.418902  15334.965758   -487.742989                    
V 32   4343.541672 -18552.084846 -22146.238203     -0.040849                    
EOF
